P/2009 U4 (McNaught),e,10.0808,55.3487,259.8345,5.081800,0.0860355,0.67599521,9.0266,05/17.0/2021,2000,g 14.0,4.0
# From MPC105235
P/2009 WX51 (Catalina),e,9.5949,31.6784,118.0867,3.080839,0.1822639,0.74028228,33.1061,05/17.0/2021,2000,g 19.0,2.0
# From MPC 74247
P/2009 Y2 (Kowalski),e,29.9336,262.0255,172.1496,6.549820,0.0587977,0.63601928,240.7955,05/17.0/2021,2000,g 13.0,4.0
# From MPC 75711
P/2010 A3 (Hill),e,14.8422,63.9141,42.0854,6.077722,0.0657798,0.73345657,268.1741,05/17.0/2021,2000,g 14.0,4.0
# From MPC 75008
P/2010 C1 (Scotti),e,9.1281,141.8861,3.6867,7.103455,0.0520595,0.25878151,218.8142,05/17.0/2021,2000,g  9.5,4.0
# From MPC 75008
P/2010 D2 (WISE),e,57.0856,319.8911,120.0471,6.716827,0.0566184,0.45097972,232.7356,05/17.0/2021,2000,g 16.0,4.0
# From MPC 75009
P/2010 E2 (Jarnac),e,15.3971,177.8237,8.3621,8.638950,0.0388162,0.71992889,157.7357,05/17.0/2021,2000,g 14.0,4.0
# From MPC 72851
P/2010 H2 (Vales),e,14.2740,64.1987,128.1264,3.833677,0.1313049,0.19583630,176.7782,05/17.0/2021,2000,g  6.0,4.0
# From MPC 70361
P/2010 H3 (SOHO),e,23.0840,77.0993,26.1414,3.037808,0.1861502,0.98538116,0.0000,02/07.9642/2021,2000,g 20.0,2.0
# From MPC 73463
P/2010 H4 (Scotti),e,2.3185,44.7412,179.5342,6.591751,0.0582375,0.26716440,232.1253,05/17.0/2021,2000,g 10.5,4.0
# From MPC 74637
P/2010 H5 (Scotti),e,14.0636,24.8055,175.1933,7.161767,0.0514249,0.15324488,208.7714,05/17.0/2021,2000,g 13.0,2.0
# From MPC 98558
P/2010 J3 (McMillan),e,13.2862,106.4176,157.5964,8.972694,0.0366708,0.72692159,143.5049,05/17.0/2021,2000,g 11.0,4.0
# From MPC 84315
P/2010 JC81 (WISE),e,38.7482,30.8482,12.4316,8.109716,0.0426772,0.77699290,157.0550,05/17.0/2021,2000,g  9.0,4.0
# From MPC 74248
P/2010 T2 (PANSTARRS),e,7.8993,58.8993,353.4122,5.527580,0.0758406,0.32152547,281.0389,05/17.0/2021,2000,g 11.5,4.0
# From MPC 98558
P/2010 TO20 (LINEAR-Grauer),e,2.4789,43.2937,266.8182,5.830511,0.0700074,0.05495947,321.3546,05/17.0/2021,2000,g  9.0,4.0
# From MPC 82316
P/2010 U1 (Boattini),e,8.2150,280.7090,85.9576,6.509834,0.0593402,0.24838183,245.0640,05/17.0/2021,2000,g  9.5,4.0
# From MPC119994
C/2010 U3 (Boattini),e,55.5277,43.0224,88.0630,2288,0.0000090,0.99630983,0.0000,02/25.6342/2019,2000,g  1.0,4.0
# From MPC 79021
P/2010 UH55 (Spacewatch),e,8.0420,232.9529,225.1762,6.652500,0.0574416,0.56338264,211.9063,05/17.0/2021,2000,g 11.0,4.0
# From MPC 75009
P/2010 WK (LINEAR),e,11.4010,11.3222,40.9738,5.761227,0.0712741,0.68994385,277.1728,05/17.0/2021,2000,g 14.5,2.0
# From MPC 82317
P/2011 A2 (Scotti),e,4.4749,54.6765,94.5158,3.105904,0.1800620,0.49948128,324.2315,05/17.0/2021,2000,g 16.5,4.0
# From MPC 84021
P/2011 C2 (Gibbs),e,10.8849,12.1244,160.9142,7.413860,0.0488245,0.26890143,167.2475,05/17.0/2021,2000,g  9.0,4.0
# From MPC 79866
P/2011 FR143 (Lemmon),e,15.9823,190.9510,350.0943,6.858522,0.0548729,0.45073122,204.7061,05/17.0/2021,2000,g 14.0,2.0
# From MPC 82317
P/2011 JB15 (Spacewatch-Boattini),e,19.1472,153.5852,111.0417,7.356893,0.0493927,0.31761909,168.0190,05/17.0/2021,2000,g  9.0,4.0
# From MPEC 2020-AA5
C/2011 KP36 (Spacewatch),e,18.9859,173.2805,180.7033,38.99721,0.0040472,0.87483723,7.3452,05/17.0/2021,2000,g  4.5,4.0
# From MPC 87913
P/2011 N1 (ASH),e,35.7238,77.5954,330.3363,6.249011,0.0630939,0.54400453,207.2611,05/17.0/2021,2000,g 11.5,4.0
# From MPC 75714
P/2011 NO1 (Elenin),e,15.2483,295.7993,263.7979,5.524784,0.0758981,0.77469320,286.0688,05/17.0/2021,2000,g 15.0,4.0
# From MPC 82318
P/2011 P1 (McNaught),e,5.6595,4.2375,348.9309,7.466298,0.0483110,0.32737824,190.9170,05/17.0/2021,2000,g  9.0,4.0
# From MPC 77806
P/2011 Q3 (McNaught),e,6.0573,32.0265,310.9881,4.970345,0.0889456,0.53269071,319.1349,05/17.0/2021,2000,g 13.5,4.0
# From MPC 98558
P/2011 S1 (Gibbs),e,2.6846,218.8815,192.4509,8.585668,0.0391781,0.20051675,96.8013,05/17.0/2021,2000,g  8.0,4.0
# From MPC 79022
P/2011 UA134 (Spacewatch-PANSTARRS),e,10.4412,40.4075,32.4328,5.606038,0.0742540,0.62933172,258.0446,05/17.0/2021,2000,g 17.5,4.0
# From MPC 77406
P/2011 V1 (Boattini),e,7.3759,46.8321,269.2845,3.855447,0.1301943,0.55058958,124.6942,05/17.0/2021,2000,g 15.5,4.0
# From MPC 82718
P/2011 W1 (PANSTARRS),e,3.7186,161.7894,282.7433,4.660998,0.0979458,0.28725821,333.8764,05/17.0/2021,2000,g 11.5,4.0
# From MPC 79342
P/2011 Y2 (Boattini),e,6.3718,309.3657,131.9161,6.239698,0.0632352,0.70942075,212.4831,05/17.0/2021,2000,g 15.0,4.0
# From MPC 94669
P/2012 B1 (PANSTARRS),e,7.6133,36.2089,162.5519,6.529135,0.0590773,0.40940407,168.9512,05/17.0/2021,2000,g  9.0,4.0
# From MPC 78590
P/2012 C3 (PANSTARRS),e,9.0920,135.3677,344.9542,9.748681,0.0323806,0.63011148,359.9758,10/06.0/2011,2000,g 13.0,4.0
# From MPC 84931
P/2012 F2 (PANSTARRS),e,14.7179,227.0396,33.2873,6.330196,0.0618840,0.54237375,182.9394,05/17.0/2021,2000,g 12.0,4.0
# From MPC 79344
P/2012 G1 (PANSTARRS),e,11.6925,282.5440,286.1149,4.172871,0.1156250,0.38072240,359.9500,06/01.0/2012,2000,g 15.0,4.0
# From MPC 80898
P/2012 K3 (Gibbs),e,13.1946,125.8088,172.1829,3.625646,0.1427664,0.42336273,91.1542,05/17.0/2021,2000,g 15.0,4.0
# From MPC 88326
P/2012 NJ (La Sagra),e,84.6630,315.5451,338.3462,8.461101,0.0400464,0.84721513,130.5286,05/17.0/2021,2000,g 14.5,4.0
# From MPC 81470
P/2012 O1 (McNaught),e,7.4315,91.9772,238.2383,3.540627,0.1479394,0.59457920,119.3049,05/17.0/2021,2000,g 17.5,4.0
# From MPC 80899
P/2012 O2 (McNaught),e,24.4856,120.6798,183.4301,3.623910,0.1428690,0.53271500,105.9887,05/17.0/2021,2000,g 17.0,4.0
# From MPC 82720
P/2012 O3 (McNaught),e,16.6157,336.4131,344.7304,4.573465,0.1007711,0.64699632,321.9330,05/17.0/2021,2000,g 16.5,4.0
# From MPC 82720
P/2012 S2 (La Sagra),e,8.6859,51.1886,312.4812,4.413953,0.1062827,0.69131555,342.1705,05/17.0/2021,2000,g 17.0,4.0
# From MPC 82320
P/2012 T2 (PANSTARRS),e,12.5584,73.7233,310.4500,5.735405,0.0717560,0.16122706,211.5312,05/17.0/2021,2000,g 10.0,4.0
# From MPC 80900
P/2012 T3 (PANSTARRS),e,9.5674,114.4047,195.4693,6.151734,0.0645963,0.61724747,213.2292,05/17.0/2021,2000,g 15.0,4.0
# From MPC 87914
P/2012 TK8 (Tenagra),e,6.3402,288.9644,128.0122,4.127094,0.1175540,0.27420481,340.9484,05/17.0/2021,2000,g 13.0,4.0
# From MPC 82720
P/2012 U2 (PANSTARRS),e,10.7536,185.2929,228.2752,7.139750,0.0516630,0.49835344,160.7225,05/17.0/2021,2000,g 12.5,4.0
# From MPC 84024
P/2012 US27 (Siding Spring),e,39.3416,49.1782,0.8063,5.166438,0.0839300,0.64762544,254.7548,05/17.0/2021,2000,g 13.5,4.0
# From MPC 82721
P/2012 WA34 (Lemmon-PANSTARRS),e,6.0937,94.1792,354.3087,4.738204,0.0955616,0.34568345,285.8661,05/17.0/2021,2000,g 13.5,4.0
# From MPC 82721
P/2013 AL76 (Catalina),e,144.8407,145.9797,27.0961,6.497081,0.0595150,0.68624057,183.4099,05/17.0/2021,2000,g 16.0,4.0
# From MPC 91612
P/2013 G1 (Kowalski),e,5.4650,221.3849,51.4367,6.889720,0.0545007,0.51280927,147.7933,05/17.0/2021,2000,g 11.0,4.0
# From MPC 84025
P/2013 G4 (PANSTARRS),e,5.9163,339.6392,214.6855,4.439992,0.1053491,0.40952031,318.0206,05/17.0/2021,2000,g 15.0,4.0
# From MPC 91613
P/2013 J2 (McNaught),e,15.5314,289.4175,37.7526,6.222978,0.0634902,0.65762697,178.9480,05/17.0/2021,2000,g 13.0,4.0
# From MPC 86229
P/2013 N3 (PANSTARRS),e,2.1736,17.4768,323.8862,7.391310,0.0490481,0.59324278,129.8307,05/17.0/2021,2000,g 13.0,4.0
# From MPC 85834
P/2013 N5 (PANSTARRS),e,23.4354,187.1611,176.8949,6.798568,0.0556004,0.73208794,159.8393,05/17.0/2021,2000,g 17.0,4.0
# From MPC 85834
P/2013 P1 (PANSTARRS),e,18.7231,160.6017,138.1474,8.571437,0.0392757,0.60590987,117.7452,05/17.0/2021,2000,g 12.0,4.0
# From MPC 94671
P/2013 R3 (Catalina-PANSTARRS),e,0.8653,342.0008,11.1697,3.033719,0.1865267,0.27521938,166.3835,05/17.0/2021,2000,g 14.0,4.0
# From unp
P/2013 R3-A (Catalina-PANSTARRS),e,0.8647,341.9677,11.2087,3.033577,0.1865398,0.27518887,166.4180,05/17.0/2021,2000,g  9.0,4.0
# From MPEC 2015-M77
P/2013 R3-B (Catalina-PANSTARRS),e,0.8659,342.0235,11.1436,3.033796,0.1865196,0.27523440,166.3650,05/17.0/2021,2000,g  9.0,4.0
# From MPC 85835
P/2013 T1 (PANSTARRS),e,24.2854,10.0838,346.0961,5.860392,0.0694727,0.62387290,197.6086,05/17.0/2021,2000,g 16.5,4.0
# From MPC 86643
P/2013 T2 (Schwartz),e,9.4564,0.8090,345.5078,3.490091,0.1511642,0.50122802,80.6226,05/17.0/2021,2000,g 16.0,4.0
# From MPC 91613
P/2013 W1 (PANSTARRS),e,4.6955,117.8476,1.2820,3.490136,0.1511613,0.59277276,37.5954,05/17.0/2021,2000,g 17.5,4.0
# From MPC111767
C/2013 X1 (PANSTARRS),h,04/19.4489/2016,163.1939,131.5728,165.2056,1.000532,1.325406,2000,10.5,2.0
# From MPC101095
P/2013 YG46 (Spacewatch),e,7.8559,48.8535,242.5288,3.276011,0.1662211,0.45489353,260.4154,05/17.0/2021,2000,g 10.0,4.0
# From MPC 89728
P/2014 A2 (Hill),e,24.5371,106.6297,356.2078,5.926898,0.0683066,0.64531640,189.3827,05/17.0/2021,2000,g 15.0,4.0
# From MPC 92981
P/2014 A3 (PANSTARRS),e,13.6888,230.0845,213.3186,4.623942,0.0991255,0.24737356,290.4677,05/17.0/2021,2000,g 12.0,4.0
# From MPC119994
C/2014 B1 (Schwartz),e,28.4092,161.4180,345.7406,6206,0.0000020,0.99846085,0.0000,09/08.1264/2017,2000,g  4.0,4.0
# From MPC102095
P/2014 C1 (TOTAS),e,2.6881,167.7641,23.9819,3.038732,0.1860653,0.44822876,142.2343,05/17.0/2021,2000,g 15.5,4.0
# From MPC 94280
C/2014 F3 (Sheppard-Trujillo),e,6.5992,326.7445,3.5561,15.48474,0.0161751,0.63257553,359.9623,05/17.0/2021,2000,g  6.0,4.0
# From MPC 98560
P/2014 L2 (NEOWISE),e,5.1989,149.3477,182.6593,6.303735,0.0622741,0.64821872,155.2674,05/17.0/2021,2000,g 12.0,4.0
# From MPC 90769
P/2014 L3 (Hill),e,6.2770,115.4719,178.6568,8.169802,0.0422072,0.77374601,105.9963,05/17.0/2021,2000,g 16.0,4.0
# From MPC 91614
P/2014 M4 (PANSTARRS),e,3.3365,263.2541,147.9563,5.873468,0.0692408,0.59428942,161.6546,05/17.0/2021,2000,g 15.0,4.0
# From MPC103844
P/2014 MG4 (Spacewatch-PANSTARRS),e,9.3712,311.7342,299.1010,5.012106,0.0878362,0.25955877,253.7996,05/17.0/2021,2000,g  9.5,4.0
# From MPC 98560
P/2014 O3 (PANSTARRS),e,7.8054,87.6441,204.6365,7.565772,0.0473614,0.38598218,122.3374,05/17.0/2021,2000,g 10.5,4.0
# From MPEC 2020-AA5
C/2014 OE4 (PANSTARRS),h,12/12.9709/2016,81.3020,240.4212,65.8899,1.003157,6.249586,2000,11.0,2.0
# From MPC115880
